[{"OBJECT_NAME":"OBJECT H","OBJECT_ID":"2025-155H","EPOCH":"2026-03-09T22:09:58.611456","MEAN_MOTION":15.27590961,"ECCENTRICITY":0.00081993,"INCLINATION":97.4482,"RA_OF_ASC_NODE":37.3122,"ARG_OF_PERICENTER":152.0629,"MEAN_ANOMALY":208.1051,"EPHEMERIS_TYPE":0,"CLASSIFICATION_TYPE":"U","NORAD_CAT_ID":64883,"ELEMENT_SET_NO":999,"REV_AT_EPOCH":6559,"BSTAR":0.00050403256,"MEAN_MOTION_DOT":0.00013547,"MEAN_MOTION_DDOT":0},{"OBJECT_NAME":"STARLINK-36487","OBJECT_ID":"2026-005N","EPOCH":"2026-03-09T21:20:04.180128","MEAN_MOTION":15.27776317,"ECCENTRICITY":0.00037754,"INCLINATION":42.998,"RA_OF_ASC_NODE":237.1463,"ARG_OF_PERICENTER":297.1589,"MEAN_ANOMALY":62.8878,"EPHEMERIS_TYPE":0,"CLASSIFICATION_TYPE":"U","NORAD_CAT_ID":67416,"ELEMENT_SET_NO":999,"REV_AT_EPOCH":872,"BSTAR":-0.0089087085,"MEAN_MOTION_DOT":-0.0023917,"MEAN_MOTION_DDOT":0}]
